{
    "links": {
        "self": "http://www.neowsapp.com/rest/v1/neo/3638201?api_key=iIulBulltgU6a56xZRHN4H3l9WmuAYTsLGpBGhQ2"
    },
    "id": "3638201",
    "neo_reference_id": "3638201",
    "name": "(2013 HT25)",
    "designation": "2013 HT25",
    "nasa_jpl_url": "http://ssd.jpl.nasa.gov/sbdb.cgi?sstr=3638201",
    "absolute_magnitude_h": 28.8,
    "estimated_diameter": {
        "kilometers": {
            "estimated_diameter_min": 0.0046190746,
            "estimated_diameter_max": 0.0103285648
        },
        "meters": {
            "estimated_diameter_min": 4.6190746028,
            "estimated_diameter_max": 10.328564805
        },
        "miles": {
            "estimated_diameter_min": 0.002870159,
            "estimated_diameter_max": 0.0064178706
        },
        "feet": {
            "estimated_diameter_min": 15.1544447199,
            "estimated_diameter_max": 33.886368555
        }
    },
    "is_potentially_hazardous_asteroid": false,
    "close_approach_data": [
        {
            "close_approach_date": "2013-04-18",
            "close_approach_date_full": "2013-Apr-18 13:48",
            "epoch_date_close_approach": 1366292880000,
            "relative_velocity": {
                "kilometers_per_second": "29.8093765894",
                "kilometers_per_hour": "107313.755721714",
                "miles_per_hour": "66680.5944927506"
            },
            "miss_distance": {
                "astronomical": "0.0003600655",
                "lunar": "0.1400654795",
                "kilometers": "53865.031860485",
                "miles": "33470.178765293"
            },
            "orbiting_body": "Earth"
        },
        {
            "close_approach_date": "2013-04-18",
            "close_approach_date_full": "2013-Apr-18 14:48",
            "epoch_date_close_approach": 1366296480000,
            "relative_velocity": {
                "kilometers_per_second": "28.7415162847",
                "kilometers_per_hour": "103469.4586247807",
                "miles_per_hour": "64291.8977771589"
            },
            "miss_distance": {
                "astronomical": "0.0022250318",
                "lunar": "0.8655373702",
                "kilometers": "332860.017962266",
                "miles": "206829.6243446308"
            },
            "orbiting_body": "Moon"
        }
    ],
    "orbital_data": {
        "orbit_id": "6",
        "orbit_determination_date": "2017-04-06 08:46:00",
        "first_observation_date": "2013-04-19",
        "last_observation_date": "2013-04-20",
        "data_arc_in_days": 1,
        "observations_used": 10,
        "orbit_uncertainty": "8",
        "minimum_orbit_intersection": "2.50823E-5",
        "jupiter_tisserand_invariant": "3.003",
        "epoch_osculation": "2456401.5",
        "eccentricity": ".8577083388121521",
        "semi_major_axis": "2.232297493939267",
        "inclination": "4.06729479663631",
        "ascending_node_longitude": "28.48100036164129",
        "orbital_period": "1218.222269894603",
        "perihelion_distance": ".3176373186780881",
        "perihelion_argument": "61.26622915355262",
        "aphelion_distance": "4.146957669200447",
        "perihelion_time": "2456359.116334464927",
        "mean_anomaly": "12.52490614372562",
        "mean_motion": ".2955125750829907",
        "equinox": "J2000",
        "orbit_class": {
            "orbit_class_type": "APO",
            "orbit_class_description": "Near-Earth asteroid orbits which cross the Earth’s orbit similar to that of 1862 Apollo",
            "orbit_class_range": "a (semi-major axis) > 1.0 AU; q (perihelion) < 1.017 AU"
        }
    },
    "is_sentry_object": false
}